ORBCOMM FM24            
1 25478U 98053D   25349.79859882  .00001143  00000+0  41569-3 0  9996
2 25478  45.0066 127.6639 0001827  96.7659 263.3397 14.38661424423598
ORBCOMM FM25            
1 25479U 98053E   25349.70426545  .00001153  00000+0  41911-3 0  9996
2 25479  45.0061 126.4102 0004216  92.1888 267.9443 14.38628979423876
ORBCOMM FM26            
1 25480U 98053F   25349.76969199  .00000985  00000+0  37229-3 0  9990
2 25480  45.0057 123.9160 0006271 104.3704 255.7841 14.37601805423779
ORBCOMM FM27            
1 25481U 98053G   25349.75726564  .00001198  00000+0  43319-3 0  9991
2 25481  45.0043 126.2914 0001277 152.1611 207.9306 14.38663241423810
ORBCOMM FM28            
1 25482U 98053H   25349.63561119  .00000971  00000+0  35895-3 0  9990
2 25482  45.0060  64.1443 0004486 156.3419 203.7636 14.38793360424484
ORBCOMM FM30            
1 25980U 99065A   25349.87783428  .00000939  00000+0  35569-3 0  9994
2 25980  45.0324 309.4364 0006211 218.3282 141.7126 14.37771158360598
ORBCOMM FM31            
1 25981U 99065B   25349.92910158  .00000923  00000+0  35102-3 0  9999
2 25981  45.0237 302.6465 0004566 251.6016 108.4336 14.37698029360155
ORBCOMM FM32            
1 25982U 99065C   25349.95652641  .00000909  00000+0  35308-3 0  9995
2 25982  45.0168 320.3099 0006884 238.8398 121.1775 14.36755778360731
