<?xml version="1.0" encoding="UTF-8"?>
<ndm xmlns:xsi="http://www.w3.org/2001/XMLSchema-instance" xsi:noNamespaceSchemaLocation="https://sanaregistry.org/r/ndmxml_unqualified/ndmxml-2.0.0-master-2.0.xsd">
<omm id="CCSDS_OMM_VERS" version="2.0">
<header><CREATION_DATE/><ORIGINATOR/></header><body><segment><metadata><OBJECT_NAME>ORBCOMM FM24</OBJECT_NAME><OBJECT_ID>1998-053D</OBJECT_ID><CENTER_NAME>EARTH</CENTER_NAME><REF_FRAME>TEME</REF_FRAME><TIME_SYSTEM>UTC</TIME_SYSTEM><MEAN_ELEMENT_THEORY>SGP4</MEAN_ELEMENT_THEORY></metadata><data><meanElements><EPOCH>2025-12-15T19:09:58.938048</EPOCH><MEAN_MOTION>14.38661424</MEAN_MOTION><ECCENTRICITY>.00018276</ECCENTRICITY><INCLINATION>45.0066</INCLINATION><RA_OF_ASC_NODE>127.6639</RA_OF_ASC_NODE><ARG_OF_PERICENTER>96.7659</ARG_OF_PERICENTER><MEAN_ANOMALY>263.3397</MEAN_ANOMALY></meanElements><tleParameters><EPHEMERIS_TYPE>0</EPHEMERIS_TYPE><CLASSIFICATION_TYPE>U</CLASSIFICATION_TYPE><NORAD_CAT_ID>25478</NORAD_CAT_ID><ELEMENT_SET_NO>999</ELEMENT_SET_NO><REV_AT_EPOCH>42359</REV_AT_EPOCH><BSTAR>.41568974E-3</BSTAR><MEAN_MOTION_DOT>.1143E-4</MEAN_MOTION_DOT><MEAN_MOTION_DDOT>0</MEAN_MOTION_DDOT></tleParameters></data></segment></body></omm>
<omm id="CCSDS_OMM_VERS" version="2.0">
<header><CREATION_DATE/><ORIGINATOR/></header><body><segment><metadata><OBJECT_NAME>ORBCOMM FM25</OBJECT_NAME><OBJECT_ID>1998-053E</OBJECT_ID><CENTER_NAME>EARTH</CENTER_NAME><REF_FRAME>TEME</REF_FRAME><TIME_SYSTEM>UTC</TIME_SYSTEM><MEAN_ELEMENT_THEORY>SGP4</MEAN_ELEMENT_THEORY></metadata><data><meanElements><EPOCH>2025-12-15T16:54:08.534880</EPOCH><MEAN_MOTION>14.38628979</MEAN_MOTION><ECCENTRICITY>.00042169</ECCENTRICITY><INCLINATION>45.0061</INCLINATION><RA_OF_ASC_NODE>126.4102</RA_OF_ASC_NODE><ARG_OF_PERICENTER>92.1888</ARG_OF_PERICENTER><MEAN_ANOMALY>267.9443</MEAN_ANOMALY></meanElements><tleParameters><EPHEMERIS_TYPE>0</EPHEMERIS_TYPE><CLASSIFICATION_TYPE>U</CLASSIFICATION_TYPE><NORAD_CAT_ID>25479</NORAD_CAT_ID><ELEMENT_SET_NO>999</ELEMENT_SET_NO><REV_AT_EPOCH>42387</REV_AT_EPOCH><BSTAR>.41911352E-3</BSTAR><MEAN_MOTION_DOT>.1153E-4</MEAN_MOTION_DOT><MEAN_MOTION_DDOT>0</MEAN_MOTION_DDOT></tleParameters></data></segment></body></omm>
<omm id="CCSDS_OMM_VERS" version="2.0">
<header><CREATION_DATE/><ORIGINATOR/></header><body><segment><metadata><OBJECT_NAME>ORBCOMM FM26</OBJECT_NAME><OBJECT_ID>1998-053F</OBJECT_ID><CENTER_NAME>EARTH</CENTER_NAME><REF_FRAME>TEME</REF_FRAME><TIME_SYSTEM>UTC</TIME_SYSTEM><MEAN_ELEMENT_THEORY>SGP4</MEAN_ELEMENT_THEORY></metadata><data><meanElements><EPOCH>2025-12-15T18:28:21.387936</EPOCH><MEAN_MOTION>14.37601805</MEAN_MOTION><ECCENTRICITY>.00062719</ECCENTRICITY><INCLINATION>45.0057</INCLINATION><RA_OF_ASC_NODE>123.9160</RA_OF_ASC_NODE><ARG_OF_PERICENTER>104.3704</ARG_OF_PERICENTER><MEAN_ANOMALY>255.7841</MEAN_ANOMALY></meanElements><tleParameters><EPHEMERIS_TYPE>0</EPHEMERIS_TYPE><CLASSIFICATION_TYPE>U</CLASSIFICATION_TYPE><NORAD_CAT_ID>25480</NORAD_CAT_ID><ELEMENT_SET_NO>999</ELEMENT_SET_NO><REV_AT_EPOCH>42377</REV_AT_EPOCH><BSTAR>.3722882E-3</BSTAR><MEAN_MOTION_DOT>.985E-5</MEAN_MOTION_DOT><MEAN_MOTION_DDOT>0</MEAN_MOTION_DDOT></tleParameters></data></segment></body></omm>
<omm id="CCSDS_OMM_VERS" version="2.0">
<header><CREATION_DATE/><ORIGINATOR/></header><body><segment><metadata><OBJECT_NAME>ORBCOMM FM27</OBJECT_NAME><OBJECT_ID>1998-053G</OBJECT_ID><CENTER_NAME>EARTH</CENTER_NAME><REF_FRAME>TEME</REF_FRAME><TIME_SYSTEM>UTC</TIME_SYSTEM><MEAN_ELEMENT_THEORY>SGP4</MEAN_ELEMENT_THEORY></metadata><data><meanElements><EPOCH>2025-12-15T18:10:27.751296</EPOCH><MEAN_MOTION>14.38663241</MEAN_MOTION><ECCENTRICITY>.00012776</ECCENTRICITY><INCLINATION>45.0043</INCLINATION><RA_OF_ASC_NODE>126.2914</RA_OF_ASC_NODE><ARG_OF_PERICENTER>152.1611</ARG_OF_PERICENTER><MEAN_ANOMALY>207.9306</MEAN_ANOMALY></meanElements><tleParameters><EPHEMERIS_TYPE>0</EPHEMERIS_TYPE><CLASSIFICATION_TYPE>U</CLASSIFICATION_TYPE><NORAD_CAT_ID>25481</NORAD_CAT_ID><ELEMENT_SET_NO>999</ELEMENT_SET_NO><REV_AT_EPOCH>42381</REV_AT_EPOCH><BSTAR>.43319042E-3</BSTAR><MEAN_MOTION_DOT>.1198E-4</MEAN_MOTION_DOT><MEAN_MOTION_DDOT>0</MEAN_MOTION_DDOT></tleParameters></data></segment></body></omm>
<omm id="CCSDS_OMM_VERS" version="2.0">
<header><CREATION_DATE/><ORIGINATOR/></header><body><segment><metadata><OBJECT_NAME>ORBCOMM FM28</OBJECT_NAME><OBJECT_ID>1998-053H</OBJECT_ID><CENTER_NAME>EARTH</CENTER_NAME><REF_FRAME>TEME</REF_FRAME><TIME_SYSTEM>UTC</TIME_SYSTEM><MEAN_ELEMENT_THEORY>SGP4</MEAN_ELEMENT_THEORY></metadata><data><meanElements><EPOCH>2025-12-15T15:15:16.806816</EPOCH><MEAN_MOTION>14.38793360</MEAN_MOTION><ECCENTRICITY>.00044861</ECCENTRICITY><INCLINATION>45.0060</INCLINATION><RA_OF_ASC_NODE>64.1443</RA_OF_ASC_NODE><ARG_OF_PERICENTER>156.3419</ARG_OF_PERICENTER><MEAN_ANOMALY>203.7636</MEAN_ANOMALY></meanElements><tleParameters><EPHEMERIS_TYPE>0</EPHEMERIS_TYPE><CLASSIFICATION_TYPE>U</CLASSIFICATION_TYPE><NORAD_CAT_ID>25482</NORAD_CAT_ID><ELEMENT_SET_NO>999</ELEMENT_SET_NO><REV_AT_EPOCH>42448</REV_AT_EPOCH><BSTAR>.35895047E-3</BSTAR><MEAN_MOTION_DOT>.971E-5</MEAN_MOTION_DOT><MEAN_MOTION_DDOT>0</MEAN_MOTION_DDOT></tleParameters></data></segment></body></omm>
<omm id="CCSDS_OMM_VERS" version="2.0">
<header><CREATION_DATE/><ORIGINATOR/></header><body><segment><metadata><OBJECT_NAME>ORBCOMM FM30</OBJECT_NAME><OBJECT_ID>1999-065A</OBJECT_ID><CENTER_NAME>EARTH</CENTER_NAME><REF_FRAME>TEME</REF_FRAME><TIME_SYSTEM>UTC</TIME_SYSTEM><MEAN_ELEMENT_THEORY>SGP4</MEAN_ELEMENT_THEORY></metadata><data><meanElements><EPOCH>2025-12-15T21:04:04.881792</EPOCH><MEAN_MOTION>14.37771158</MEAN_MOTION><ECCENTRICITY>.00062119</ECCENTRICITY><INCLINATION>45.0324</INCLINATION><RA_OF_ASC_NODE>309.4364</RA_OF_ASC_NODE><ARG_OF_PERICENTER>218.3282</ARG_OF_PERICENTER><MEAN_ANOMALY>141.7126</MEAN_ANOMALY></meanElements><tleParameters><EPHEMERIS_TYPE>0</EPHEMERIS_TYPE><CLASSIFICATION_TYPE>U</CLASSIFICATION_TYPE><NORAD_CAT_ID>25980</NORAD_CAT_ID><ELEMENT_SET_NO>999</ELEMENT_SET_NO><REV_AT_EPOCH>36059</REV_AT_EPOCH><BSTAR>.35569424E-3</BSTAR><MEAN_MOTION_DOT>.939E-5</MEAN_MOTION_DOT><MEAN_MOTION_DDOT>0</MEAN_MOTION_DDOT></tleParameters></data></segment></body></omm>
<omm id="CCSDS_OMM_VERS" version="2.0">
<header><CREATION_DATE/><ORIGINATOR/></header><body><segment><metadata><OBJECT_NAME>ORBCOMM FM31</OBJECT_NAME><OBJECT_ID>1999-065B</OBJECT_ID><CENTER_NAME>EARTH</CENTER_NAME><REF_FRAME>TEME</REF_FRAME><TIME_SYSTEM>UTC</TIME_SYSTEM><MEAN_ELEMENT_THEORY>SGP4</MEAN_ELEMENT_THEORY></metadata><data><meanElements><EPOCH>2025-12-15T22:17:54.376512</EPOCH><MEAN_MOTION>14.37698029</MEAN_MOTION><ECCENTRICITY>.00045661</ECCENTRICITY><INCLINATION>45.0237</INCLINATION><RA_OF_ASC_NODE>302.6465</RA_OF_ASC_NODE><ARG_OF_PERICENTER>251.6016</ARG_OF_PERICENTER><MEAN_ANOMALY>108.4336</MEAN_ANOMALY></meanElements><tleParameters><EPHEMERIS_TYPE>0</EPHEMERIS_TYPE><CLASSIFICATION_TYPE>U</CLASSIFICATION_TYPE><NORAD_CAT_ID>25981</NORAD_CAT_ID><ELEMENT_SET_NO>999</ELEMENT_SET_NO><REV_AT_EPOCH>36015</REV_AT_EPOCH><BSTAR>.35101777E-3</BSTAR><MEAN_MOTION_DOT>.923E-5</MEAN_MOTION_DOT><MEAN_MOTION_DDOT>0</MEAN_MOTION_DDOT></tleParameters></data></segment></body></omm>
<omm id="CCSDS_OMM_VERS" version="2.0">
<header><CREATION_DATE/><ORIGINATOR/></header><body><segment><metadata><OBJECT_NAME>ORBCOMM FM32</OBJECT_NAME><OBJECT_ID>1999-065C</OBJECT_ID><CENTER_NAME>EARTH</CENTER_NAME><REF_FRAME>TEME</REF_FRAME><TIME_SYSTEM>UTC</TIME_SYSTEM><MEAN_ELEMENT_THEORY>SGP4</MEAN_ELEMENT_THEORY></metadata><data><meanElements><EPOCH>2025-12-15T22:57:23.881824</EPOCH><MEAN_MOTION>14.36755778</MEAN_MOTION><ECCENTRICITY>.00068841</ECCENTRICITY><INCLINATION>45.0168</INCLINATION><RA_OF_ASC_NODE>320.3099</RA_OF_ASC_NODE><ARG_OF_PERICENTER>238.8398</ARG_OF_PERICENTER><MEAN_ANOMALY>121.1775</MEAN_ANOMALY></meanElements><tleParameters><EPHEMERIS_TYPE>0</EPHEMERIS_TYPE><CLASSIFICATION_TYPE>U</CLASSIFICATION_TYPE><NORAD_CAT_ID>25982</NORAD_CAT_ID><ELEMENT_SET_NO>999</ELEMENT_SET_NO><REV_AT_EPOCH>36073</REV_AT_EPOCH><BSTAR>.35308265E-3</BSTAR><MEAN_MOTION_DOT>.909E-5</MEAN_MOTION_DOT><MEAN_MOTION_DDOT>0</MEAN_MOTION_DDOT></tleParameters></data></segment></body></omm>

</ndm>
